[{"OBJECT_NAME":"JILIN-1 10","OBJECT_ID":"2019-005E","EPOCH":"2026-03-09T22:11:06.915840","MEAN_MOTION":15.2445874,"ECCENTRICITY":0.00069203,"INCLINATION":97.4731,"RA_OF_ASC_NODE":167.8564,"ARG_OF_PERICENTER":265.2171,"MEAN_ANOMALY":94.8276,"EPHEMERIS_TYPE":0,"CLASSIFICATION_TYPE":"U","NORAD_CAT_ID":43946,"ELEMENT_SET_NO":999,"REV_AT_EPOCH":39418,"BSTAR":0.00035023991,"MEAN_MOTION_DOT":8.535e-5,"MEAN_MOTION_DDOT":0},{"OBJECT_NAME":"STARLINK-30219","OBJECT_ID":"2023-113N","EPOCH":"2026-03-09T22:00:01.999584","MEAN_MOTION":15.21768121,"ECCENTRICITY":0.00012669,"INCLINATION":43.0005,"RA_OF_ASC_NODE":15.1383,"ARG_OF_PERICENTER":299.1137,"MEAN_ANOMALY":139.1859,"EPHEMERIS_TYPE":0,"CLASSIFICATION_TYPE":"U","NORAD_CAT_ID":57507,"ELEMENT_SET_NO":999,"REV_AT_EPOCH":572,"BSTAR":0.033850626,"MEAN_MOTION_DOT":0.00840089,"MEAN_MOTION_DDOT":0}]
